HULIANWANG DIGUI-137    
1 67435U 26007A   26039.56989855  .00000009  00000+0  15901-3 0  9992
2 67435  50.0204 191.9611 0002101 181.7630 178.3255 13.73645514  3605
HULIANWANG DIGUI-138    
1 67436U 26007B   26039.64890914  .00000008  00000+0  15967-3 0  9990
2 67436  50.0069 191.6931 0001565 183.8520 176.2359 13.72677228  3610
HULIANWANG DIGUI-139    
1 67437U 26007C   26039.71834649  .00000035  00000+0  18828-3 0  9991
2 67437  50.0126 191.3753 0000450 309.6232  50.4619 13.72825631  3620
HULIANWANG DIGUI-140    
1 67438U 26007D   26038.56078172  .00000037  00000+0  18840-3 0  9991
2 67438  50.0042 195.9376 0000449 100.2709 259.8233 13.73892776  3465
HULIANWANG DIGUI-141    
1 67439U 26007E   26038.54785445  .00000020  00000+0  16774-3 0  9994
2 67439  50.0031 195.8681 0000432 103.6480 256.4460 13.74661753  3462
HULIANWANG DIGUI-142    
1 67440U 26007F   26038.39919996 -.00000130  00000+0  11054-4 0  9999
2 67440  50.0103 196.4425 0001574 349.9268  10.1593 13.75320254  3443
HULIANWANG DIGUI-143    
1 67441U 26007G   26038.61380095  .00000020  00000+0  16749-3 0  9999
2 67441  50.0040 195.5696 0002397 180.3309 179.7582 13.75018638  3474
HULIANWANG DIGUI-144    
1 67442U 26007H   26038.39263977  .00000007  00000+0  15225-3 0  9997
2 67442  50.0090 196.4111 0001932 359.9166   0.1726 13.75792192  3449
HULIANWANG DIGUI-145    
1 67443U 26007J   26038.97030676  .00000021  00000+0  16871-3 0  9994
2 67443  50.0093 194.1176 0000447 266.2774  93.8067 13.74722896  3523
CZ-8A R/B               
1 67444U 26007K   26039.77507420  .00000051  00000+0  10460-3 0  9991
2 67444  50.0089 186.3328 0092230 172.6763 187.5516 14.13552291  3692
STARLINK-36542          
1 67445U 26008A   26039.83335647  .00093823  00000+0  15913-2 0  9996
2 67445  43.0004   9.5717 0000710 248.1258  95.8369 15.50485356  5159
STARLINK-36539          
1 67446U 26008B   26039.83335647 -.00004548  00000+0 -71785-4 0  9996
2 67446  43.0003   9.4751 0001241 259.4887 123.8026 15.50563059  5158
